[Satellite]
VERSION=1.1
NAME=NOAA 8 [-]
NICKNAME=NOAA 8 [-]
TLE1=1 13923U 83022A   18020.96646986  .00000014  00000-0  22799-4 0  9996
TLE2=2 13923  98.5325  11.0554 0014273 241.7238 118.2504 14.28623037812730
